{"type": "FeatureCollection", "features": [{"type": "Feature", "properties": {"norad_id": 28890, "name": "BEIJING 1", "group": "dmc", "lat": 81.14533788418986, "lon": 53.9933824216187, "alt_km": 665.1240751102232, "timestamp": "2025-12-21T09:37:22.315029+00:00", "meta": {"OBJECT_NAME": "BEIJING 1", "OBJECT_ID": "2005-043A", "EPOCH": "2025-12-21T04:18:17.502336", "MEAN_MOTION": 14.63372356, "ECCENTRICITY": 0.001574, "INCLINATION": 98.266, "RA_OF_ASC_NODE": 122.7063, "ARG_OF_PERICENTER": 116.4122, "MEAN_ANOMALY": 243.8697, "EPHEMERIS_TYPE": 0, "CLASSIFICATION_TYPE": "U", "NORAD_CAT_ID": 28890, "ELEMENT_SET_NO": 999, "REV_AT_EPOCH": 7461, "BSTAR": 8.0107e-06, "MEAN_MOTION_DOT": -7e-08, "MEAN_MOTION_DDOT": 0}, "tle": {"line1": "1 28890U 05043A   25355.17936924 -.00000007  00000+0  80107-5 0  9998", "line2": "2 28890  98.2660 122.7063 0015740 116.4122 243.8697 14.63372356 74612"}}, "geometry": {"type": "Point", "coordinates": [53.9933824216187, 81.14533788418986]}}, {"type": "Feature", "properties": {"norad_id": 33320, "name": "HUANJING 1A (HJ-1A)", "group": "dmc", "lat": 17.529470758864527, "lon": -19.096510738899646, "alt_km": 605.6217591313971, "timestamp": "2025-12-21T09:37:22.315053+00:00", "meta": {"OBJECT_NAME": "HUANJING 1A (HJ-1A)", "OBJECT_ID": "2008-041A", "EPOCH": "2025-12-21T04:41:13.310880", "MEAN_MOTION": 14.83419138, "ECCENTRICITY": 0.0019525, "INCLINATION": 97.6537, "RA_OF_ASC_NODE": 343.1408, "ARG_OF_PERICENTER": 7.6994, "MEAN_ANOMALY": 352.4516, "EPHEMERIS_TYPE": 0, "CLASSIFICATION_TYPE": "U", "NORAD_CAT_ID": 33320, "ELEMENT_SET_NO": 999, "REV_AT_EPOCH": 93201, "BSTAR": 0.0001827, "MEAN_MOTION_DOT": 1.453e-05, "MEAN_MOTION_DDOT": 0}, "tle": {"line1": "1 33320U 08041A   25355.19529295  .00001453  00000+0  18270-3 0  9999", "line2": "2 33320  97.6537 343.1408 0019525   7.6994 352.4516 14.83419138932013"}}, "geometry": {"type": "Point", "coordinates": [-19.096510738899646, 17.529470758864527]}}, {"type": "Feature", "properties": {"norad_id": 33321, "name": "HUANJING 1B (HJ-1B)", "group": "dmc", "lat": -40.6560825943776, "lon": 160.39293536862345, "alt_km": 653.3207190019357, "timestamp": "2025-12-21T09:37:22.315068+00:00", "meta": {"OBJECT_NAME": "HUANJING 1B (HJ-1B)", "OBJECT_ID": "2008-041B", "EPOCH": "2025-12-21T05:23:30.923808", "MEAN_MOTION": 14.8284398, "ECCENTRICITY": 0.0038013, "INCLINATION": 97.6396, "RA_OF_ASC_NODE": 346.8437, "ARG_OF_PERICENTER": 48.9835, "MEAN_ANOMALY": 311.4656, "EPHEMERIS_TYPE": 0, "CLASSIFICATION_TYPE": "U", "NORAD_CAT_ID": 33321, "ELEMENT_SET_NO": 999, "REV_AT_EPOCH": 93203, "BSTAR": 0.00019046, "MEAN_MOTION_DOT": 1.509e-05, "MEAN_MOTION_DDOT": 0}, "tle": {"line1": "1 33321U 08041B   25355.22466347  .00001509  00000+0  19046-3 0  9996", "line2": "2 33321  97.6396 346.8437 0038013  48.9835 311.4656 14.82843980932031"}}, "geometry": {"type": "Point", "coordinates": [160.39293536862345, -40.6560825943776]}}, {"type": "Feature", "properties": {"norad_id": 33446, "name": "YAOGAN-4", "group": "dmc", "lat": 50.800625359175235, "lon": 115.24255899203172, "alt_km": 624.99566307245, "timestamp": "2025-12-21T09:37:22.315080+00:00", "meta": {"OBJECT_NAME": "YAOGAN-4", "OBJECT_ID": "2008-061A", "EPOCH": "2025-12-20T07:07:49.061568", "MEAN_MOTION": 14.82702731, "ECCENTRICITY": 0.00131175, "INCLINATION": 97.9192, "RA_OF_ASC_NODE": 284.3224, "ARG_OF_PERICENTER": 296.7402, "MEAN_ANOMALY": 63.2469, "EPHEMERIS_TYPE": 0, "CLASSIFICATION_TYPE": "U", "NORAD_CAT_ID": 33446, "ELEMENT_SET_NO": 999, "REV_AT_EPOCH": 91915, "BSTAR": 0.000123707, "MEAN_MOTION_DOT": 9.46e-06, "MEAN_MOTION_DDOT": 0}, "tle": {"line1": "1 33446U 08061A   25354.29709562  .00000946  00000+0  12371-3 0  9999", "line2": "2 33446  97.9192 284.3224 0013117 296.7402  63.2469 14.82702731919157"}}, "geometry": {"type": "Point", "coordinates": [115.24255899203172, 50.800625359175235]}}, {"type": "Feature", "properties": {"norad_id": 35681, "name": "DEIMOS-1", "group": "dmc", "lat": 16.99652807556116, "lon": 153.22604173326556, "alt_km": 644.6264440051827, "timestamp": "2025-12-21T09:37:22.315091+00:00", "meta": {"OBJECT_NAME": "DEIMOS-1", "OBJECT_ID": "2009-041A", "EPOCH": "2025-12-21T04:39:39.172896", "MEAN_MOTION": 14.74963113, "ECCENTRICITY": 0.0002586, "INCLINATION": 97.7146, "RA_OF_ASC_NODE": 155.4037, "ARG_OF_PERICENTER": 66.2933, "MEAN_ANOMALY": 293.8548, "EPHEMERIS_TYPE": 0, "CLASSIFICATION_TYPE": "U", "NORAD_CAT_ID": 35681, "ELEMENT_SET_NO": 999, "REV_AT_EPOCH": 88064, "BSTAR": 3.3542e-05, "MEAN_MOTION_DOT": 1.78e-06, "MEAN_MOTION_DDOT": 0}, "tle": {"line1": "1 35681U 09041A   25355.19420339  .00000178  00000+0  33542-4 0  9994", "line2": "2 35681  97.7146 155.4037 0002586  66.2933 293.8548 14.74963113880648"}}, "geometry": {"type": "Point", "coordinates": [153.22604173326556, 16.99652807556116]}}, {"type": "Feature", "properties": {"norad_id": 35683, "name": "UK-DMC 2", "group": "dmc", "lat": 52.58588756380814, "lon": 119.6596481370448, "alt_km": 637.3974227973195, "timestamp": "2025-12-21T09:37:22.315103+00:00", "meta": {"OBJECT_NAME": "UK-DMC 2", "OBJECT_ID": "2009-041C", "EPOCH": "2025-12-21T04:29:59.885952", "MEAN_MOTION": 14.75636244, "ECCENTRICITY": 0.0001535, "INCLINATION": 97.8565, "RA_OF_ASC_NODE": 129.8517, "ARG_OF_PERICENTER": 93.3758, "MEAN_ANOMALY": 266.7627, "EPHEMERIS_TYPE": 0, "CLASSIFICATION_TYPE": "U", "NORAD_CAT_ID": 35683, "ELEMENT_SET_NO": 999, "REV_AT_EPOCH": 88031, "BSTAR": 2.8485e-05, "MEAN_MOTION_DOT": 1.45e-06, "MEAN_MOTION_DDOT": 0}, "tle": {"line1": "1 35683U 09041C   25355.18749868  .00000145  00000+0  28485-4 0  9990", "line2": "2 35683  97.8565 129.8517 0001535  93.3758 266.7627 14.75636244880317"}}, "geometry": {"type": "Point", "coordinates": [119.6596481370448, 52.58588756380814]}}, {"type": "Feature", "properties": {"norad_id": 40715, "name": "DMC3-FM1", "group": "dmc", "lat": 47.26612696755726, "lon": -146.10908012642872, "alt_km": 609.5389806449857, "timestamp": "2025-12-21T09:37:22.315114+00:00", "meta": {"OBJECT_NAME": "DMC3-FM1", "OBJECT_ID": "2015-032A", "EPOCH": "2025-12-21T04:33:29.774880", "MEAN_MOTION": 14.85453724, "ECCENTRICITY": 0.0004143, "INCLINATION": 97.6689, "RA_OF_ASC_NODE": 222.074, "ARG_OF_PERICENTER": 286.5993, "MEAN_ANOMALY": 73.4767, "EPHEMERIS_TYPE": 0, "CLASSIFICATION_TYPE": "U", "NORAD_CAT_ID": 40715, "ELEMENT_SET_NO": 999, "REV_AT_EPOCH": 56348, "BSTAR": 0.00010677, "MEAN_MOTION_DOT": 8.69e-06, "MEAN_MOTION_DDOT": 0}, "tle": {"line1": "1 40715U 15032A   25355.18992795  .00000869  00000+0  10677-3 0  9994", "line2": "2 40715  97.6689 222.0740 0004143 286.5993  73.4767 14.85453724563488"}}, "geometry": {"type": "Point", "coordinates": [-146.10908012642872, 47.26612696755726]}}, {"type": "Feature", "properties": {"norad_id": 40716, "name": "DMC3-FM2", "group": "dmc", "lat": -70.79338741936817, "lon": -113.49898203781382, "alt_km": 616.1841131897254, "timestamp": "2025-12-21T09:37:22.315124+00:00", "meta": {"OBJECT_NAME": "DMC3-FM2", "OBJECT_ID": "2015-032B", "EPOCH": "2025-12-21T05:05:52.363968", "MEAN_MOTION": 14.85457783, "ECCENTRICITY": 0.0004688, "INCLINATION": 97.6748, "RA_OF_ASC_NODE": 223.5458, "ARG_OF_PERICENTER": 293.7978, "MEAN_ANOMALY": 66.2746, "EPHEMERIS_TYPE": 0, "CLASSIFICATION_TYPE": "U", "NORAD_CAT_ID": 40716, "ELEMENT_SET_NO": 999, "REV_AT_EPOCH": 56348, "BSTAR": 0.0001378, "MEAN_MOTION_DOT": 1.137e-05, "MEAN_MOTION_DDOT": 0}, "tle": {"line1": "1 40716U 15032B   25355.21241162  .00001137  00000+0  13780-3 0  9991", "line2": "2 40716  97.6748 223.5458 0004688 293.7978  66.2746 14.85457783563480"}}, "geometry": {"type": "Point", "coordinates": [-113.49898203781382, -70.79338741936817]}}, {"type": "Feature", "properties": {"norad_id": 40717, "name": "DMC3-FM3", "group": "dmc", "lat": 8.102085654356213, "lon": 46.46708376565315, "alt_km": 615.7034253193124, "timestamp": "2025-12-21T09:37:22.315134+00:00", "meta": {"OBJECT_NAME": "DMC3-FM3", "OBJECT_ID": "2015-032C", "EPOCH": "2025-12-21T04:00:06.928704", "MEAN_MOTION": 14.85440684, "ECCENTRICITY": 0.0004099, "INCLINATION": 97.6803, "RA_OF_ASC_NODE": 225.1404, "ARG_OF_PERICENTER": 296.0021, "MEAN_ANOMALY": 64.0772, "EPHEMERIS_TYPE": 0, "CLASSIFICATION_TYPE": "U", "NORAD_CAT_ID": 40717, "ELEMENT_SET_NO": 999, "REV_AT_EPOCH": 56348, "BSTAR": 1.2933e-05, "MEAN_MOTION_DOT": 6e-07, "MEAN_MOTION_DDOT": 0}, "tle": {"line1": "1 40717U 15032C   25355.16674686  .00000060  00000+0  12933-4 0  9991", "line2": "2 40717  97.6803 225.1404 0004099 296.0021  64.0772 14.85440684563480"}}, "geometry": {"type": "Point", "coordinates": [46.46708376565315, 8.102085654356213]}}]}